[Satellite]
VERSION=1.1
NAME=ESIAFI 1 (COMSTAR 4)
NICKNAME=ESIAFI 1 (COMSTAR 4)
TLE1=1 12309U 81018A   11058.35440171 -.00000172  00000-0  10000-3 0  4072
TLE2=2 12309  14.3762   4.8458 0006110 329.2296  30.7411  1.00268133111418
